{
  "norad_id": 53675,
  "name": "STARLINK-4617",
  "history": [
    {
      "epoch": "2026-03-28T16:06:15.189696Z",
      "apogee_km": 551.0231547889571,
      "perigee_km": 548.0139197766712,
      "latitude_deg": -3.680810160794914e-05,
      "longitude_deg": -97.66009813818788,
      "height_km": 552.5203857672459,
      "semi_major_axis_km": 6927.655537282813,
      "eccentricity": 0.00021719,
      "inclination_deg": 97.6039,
      "raan_deg": 329.9913,
      "arg_perigee_deg": 87.7251,
      "mean_anomaly_deg": 272.4224,
      "mean_motion_rev_day": 15.05647593
    },
    {
      "epoch": "2026-03-29T04:51:51.329952Z",
      "apogee_km": 551.0837597765949,
      "perigee_km": 547.956615322134,
      "latitude_deg": -2.1558034450835047e-05,
      "longitude_deg": 70.93937923260356,
      "height_km": 552.5371748127089,
      "semi_major_axis_km": 6927.657187549364,
      "eccentricity": 0.0002257,
      "inclination_deg": 97.6039,
      "raan_deg": 330.5154,
      "arg_perigee_deg": 88.3716,
      "mean_anomaly_deg": 271.7769,
      "mean_motion_rev_day": 15.05647055
    },
    {
      "epoch": "2026-03-30T04:47:21.360192Z",
      "apogee_km": 551.1073365438133,
      "perigee_km": 547.9358544387978,
      "latitude_deg": 1.5900435987464906e-06,
      "longitude_deg": 72.0642856140027,
      "height_km": 552.5683172979905,
      "semi_major_axis_km": 6927.658595491305,
      "eccentricity": 0.0002289,
      "inclination_deg": 97.6041,
      "raan_deg": 331.498,
      "arg_perigee_deg": 89.4712,
      "mean_anomaly_deg": 270.6777,
      "mean_motion_rev_day": 15.05646596
    },
    {
      "epoch": "2026-03-30T04:47:21.361056Z",
      "apogee_km": 551.1075443735717,
      "perigee_km": 547.9356466090394,
      "latitude_deg": -1.8391434910199235e-06,
      "longitude_deg": 72.06428245944215,
      "height_km": 552.5683153800576,
      "semi_major_axis_km": 6927.658595491305,
      "eccentricity": 0.00022893,
      "inclination_deg": 97.6041,
      "raan_deg": 331.498,
      "arg_perigee_deg": 89.4712,
      "mean_anomaly_deg": 270.6777,
      "mean_motion_rev_day": 15.05646596
    },
    {
      "epoch": "2026-03-30T14:21:33.414624Z",
      "apogee_km": 551.1244672754574,
      "perigee_km": 547.9155765429086,
      "latitude_deg": -6.2874466344106175e-06,
      "longitude_deg": -71.4866662347043,
      "height_km": 552.5589520885902,
      "semi_major_axis_km": 6927.657021909183,
      "eccentricity": 0.0002316,
      "inclination_deg": 97.6036,
      "raan_deg": 331.8903,
      "arg_perigee_deg": 89.2003,
      "mean_anomaly_deg": 270.9489,
      "mean_motion_rev_day": 15.05647109
    },
    {
      "epoch": "2026-03-30T22:20:03.506496Z",
      "apogee_km": 551.1331987314179,
      "perigee_km": 547.9193171927845,
      "latitude_deg": 5.3225604259345474e-05,
      "longitude_deg": 168.88792078820185,
      "height_km": 552.5622821458394,
      "semi_major_axis_km": 6927.663257962101,
      "eccentricity": 0.00023196,
      "inclination_deg": 97.6036,
      "raan_deg": 332.2178,
      "arg_perigee_deg": 89.0986,
      "mean_anomaly_deg": 271.0507,
      "mean_motion_rev_day": 15.05645076
    },
    {
      "epoch": "2026-03-31T09:29:57.250464Z",
      "apogee_km": 551.139144129429,
      "perigee_km": 547.8942311421415,
      "latitude_deg": 0.00010009686484011592,
      "longitude_deg": 1.4141546653404902,
      "height_km": 552.5413947234628,
      "semi_major_axis_km": 6927.653687635785,
      "eccentricity": 0.0002342,
      "inclination_deg": 97.6036,
      "raan_deg": 332.6765,
      "arg_perigee_deg": 88.7091,
      "mean_anomaly_deg": 271.4405,
      "mean_motion_rev_day": 15.05648196
    },
    {
      "epoch": "2026-04-01T09:25:27.352416Z",
      "apogee_km": 551.1841279658274,
      "perigee_km": 547.8560814927159,
      "latitude_deg": 1.6871354005042868e-05,
      "longitude_deg": 2.5388762478272717,
      "height_km": 552.53492464006,
      "semi_major_axis_km": 6927.657104729272,
      "eccentricity": 0.0002402,
      "inclination_deg": 97.6033,
      "raan_deg": 333.6592,
      "arg_perigee_deg": 88.4039,
      "mean_anomaly_deg": 271.7463,
      "mean_motion_rev_day": 15.05647082
    },
    {
      "epoch": "2026-04-02T17:19:27.327648Z",
      "apogee_km": 551.245257531179,
      "perigee_km": 547.789743466331,
      "latitude_deg": -2.0587587273986353e-05,
      "longitude_deg": -115.96080049198689,
      "height_km": 552.503958237898,
      "semi_major_axis_km": 6927.654500498755,
      "eccentricity": 0.0002494,
      "inclination_deg": 97.6033,
      "raan_deg": 334.9695,
      "arg_perigee_deg": 87.5271,
      "mean_anomaly_deg": 272.6241,
      "mean_motion_rev_day": 15.05647931
    },
    {
      "epoch": "2026-04-02T22:06:33.115968Z",
      "apogee_km": 551.2444437031327,
      "perigee_km": 547.7753552417535,
      "latitude_deg": 6.147307305622506e-05,
      "longitude_deg": 172.2651602009981,
      "height_km": 552.5036355604302,
      "semi_major_axis_km": 6927.646899472443,
      "eccentricity": 0.00025038,
      "inclination_deg": 97.6031,
      "raan_deg": 335.1661,
      "arg_perigee_deg": 87.7781,
      "mean_anomaly_deg": 272.3733,
      "mean_motion_rev_day": 15.05650409
    },
    {
      "epoch": "2026-04-03T15:39:16.084800Z",
      "apogee_km": 551.2100341172163,
      "perigee_km": 547.8722787814386,
      "latitude_deg": 5.7415769012127684e-05,
      "longitude_deg": -90.91413465321713,
      "height_km": 552.524100129324,
      "semi_major_axis_km": 6927.678156449327,
      "eccentricity": 0.0002409,
      "inclination_deg": 97.6031,
      "raan_deg": 335.8864,
      "arg_perigee_deg": 87.3143,
      "mean_anomaly_deg": 272.836,
      "mean_motion_rev_day": 15.05640219
    },
    {
      "epoch": "2026-04-04T06:00:33.791904Z",
      "apogee_km": 551.2301698601959,
      "perigee_km": 547.8245300657545,
      "latitude_deg": -5.561213986283508e-05,
      "longitude_deg": 53.76196492680553,
      "height_km": 552.4622102977913,
      "semi_major_axis_km": 6927.6643499629745,
      "eccentricity": 0.0002458,
      "inclination_deg": 97.6028,
      "raan_deg": 336.4758,
      "arg_perigee_deg": 85.749,
      "mean_anomaly_deg": 274.4017,
      "mean_motion_rev_day": 15.0564472
    },
    {
      "epoch": "2026-04-05T13:54:33.845760Z",
      "apogee_km": 551.1242139488941,
      "perigee_km": 547.9546634246663,
      "latitude_deg": 5.497038760032451e-05,
      "longitude_deg": -64.73856296532685,
      "height_km": 552.4403995574281,
      "semi_major_axis_km": 6927.67643868678,
      "eccentricity": 0.00022876,
      "inclination_deg": 97.6024,
      "raan_deg": 337.7856,
      "arg_perigee_deg": 84.1902,
      "mean_anomaly_deg": 275.9586,
      "mean_motion_rev_day": 15.05640779
    },
    {
      "epoch": "2026-04-05T15:30:15.823872Z",
      "apogee_km": 551.1222120636448,
      "perigee_km": 547.953493585962,
      "latitude_deg": -3.925844540936502e-05,
      "longitude_deg": -88.66346344904854,
      "height_km": 552.4396177662417,
      "semi_major_axis_km": 6927.674852824803,
      "eccentricity": 0.0002287,
      "inclination_deg": 97.6025,
      "raan_deg": 337.8511,
      "arg_perigee_deg": 84.2174,
      "mean_anomaly_deg": 275.9313,
      "mean_motion_rev_day": 15.05641296
    },
    {
      "epoch": "2026-04-06T05:51:33.648480Z",
      "apogee_km": 551.0984310024969,
      "perigee_km": 547.9349872127705,
      "latitude_deg": -6.8950937308032475e-06,
      "longitude_deg": 56.01222491448862,
      "height_km": 552.4251556107172,
      "semi_major_axis_km": 6927.653709107633,
      "eccentricity": 0.00022832,
      "inclination_deg": 97.6033,
      "raan_deg": 338.4406,
      "arg_perigee_deg": 84.4514,
      "mean_anomaly_deg": 275.6973,
      "mean_motion_rev_day": 15.05648189
    },
    {
      "epoch": "2026-04-07T15:21:15.607008Z",
      "apogee_km": 551.0147625798572,
      "perigee_km": 548.0252014858306,
      "latitude_deg": 6.538603446697864e-05,
      "longitude_deg": -86.4126059305148,
      "height_km": 552.4137298173491,
      "semi_major_axis_km": 6927.656982032843,
      "eccentricity": 0.00021577,
      "inclination_deg": 97.6037,
      "raan_deg": 339.8162,
      "arg_perigee_deg": 83.5531,
      "mean_anomaly_deg": 276.5942,
      "mean_motion_rev_day": 15.05647122
    },
    {
      "epoch": "2026-04-07T20:08:21.600096Z",
      "apogee_km": 551.0049611972436,
      "perigee_km": 548.0329967822572,
      "latitude_deg": 1.1067144151481968e-05,
      "longitude_deg": -158.18758339194207,
      "height_km": 552.4132382425953,
      "semi_major_axis_km": 6927.65597898975,
      "eccentricity": 0.0002145,
      "inclination_deg": 97.6038,
      "raan_deg": 340.0127,
      "arg_perigee_deg": 83.5335,
      "mean_anomaly_deg": 276.6136,
      "mean_motion_rev_day": 15.05647449
    },
    {
      "epoch": "2026-04-08T15:16:44.725728Z",
      "apogee_km": 551.0326389691027,
      "perigee_km": 548.0004050225243,
      "latitude_deg": -2.3690732220655e-05,
      "longitude_deg": -85.2839799090423,
      "height_km": 552.6480377780138,
      "semi_major_axis_km": 6927.653521995813,
      "eccentricity": 0.00021885,
      "inclination_deg": 97.6037,
      "raan_deg": 340.7987,
      "arg_perigee_deg": 92.644,
      "mean_anomaly_deg": 267.5037,
      "mean_motion_rev_day": 15.0564825
    },
    {
      "epoch": "2026-04-09T19:59:21.255360Z",
      "apogee_km": 550.8551267125022,
      "perigee_km": 548.201830834133,
      "latitude_deg": 4.478729733460135e-05,
      "longitude_deg": -155.93618319088282,
      "height_km": 552.4954860481729,
      "semi_major_axis_km": 6927.665478773318,
      "eccentricity": 0.0001915,
      "inclination_deg": 97.6043,
      "raan_deg": 341.9778,
      "arg_perigee_deg": 85.8941,
      "mean_anomaly_deg": 274.2505,
      "mean_motion_rev_day": 15.05644352
    },
    {
      "epoch": "2026-04-10T05:33:33.233760Z",
      "apogee_km": 550.8509783036134,
      "perigee_km": 548.2022553963479,
      "latitude_deg": 7.900347124450536e-05,
      "longitude_deg": 60.513975539269175,
      "height_km": 552.4966593016794,
      "semi_major_axis_km": 6927.663616849981,
      "eccentricity": 0.00019117,
      "inclination_deg": 97.6044,
      "raan_deg": 342.3709,
      "arg_perigee_deg": 86.0187,
      "mean_anomaly_deg": 274.1259,
      "mean_motion_rev_day": 15.05644959
    },
    {
      "epoch": "2026-04-11T19:50:21.293376Z",
      "apogee_km": 550.7887339573808,
      "perigee_km": 548.2739903419206,
      "latitude_deg": -4.700805853659529e-05,
      "longitude_deg": -153.68606366673504,
      "height_km": 552.5392527570725,
      "semi_major_axis_km": 6927.66836214965,
      "eccentricity": 0.0001815,
      "inclination_deg": 97.6045,
      "raan_deg": 343.9432,
      "arg_perigee_deg": 87.5254,
      "mean_anomaly_deg": 272.618,
      "mean_motion_rev_day": 15.05643412
    }
  ]
}